OBJECT_NAME,OBJECT_ID,EPOCH,MEAN_MOTION,ECCENTRICITY,INCLINATION,RA_OF_ASC_NODE,ARG_OF_PERICENTER,MEAN_ANOMALY,EPHEMERIS_TYPE,CLASSIFICATION_TYPE,NORAD_CAT_ID,ELEMENT_SET_NO,REV_AT_EPOCH,BSTAR,MEAN_MOTION_DOT,MEAN_MOTION_DDOT
KUIPER-00534,2026-140Q,2026-07-05T08:51:37.220256,15.38603679,.0013773,51.8821,310.5863,228.9582,131.0216,0,U,69606,999,403,.13326E-2,.51717E-3,0
KUIPER-00537,2026-140R,2026-07-05T08:19:53.730624,15.34980861,.0009691,51.8823,311.1792,19.1451,340.9897,0,U,69607,999,402,.15371E-2,.53018E-3,0
KUIPER-00538,2026-140S,2026-07-05T09:25:55.649280,15.37554265,.0006093,51.8816,310.7388,304.5948,55.4464,0,U,69608,999,403,.10065E-2,.37479E-3,0
KUIPER-00540,2026-140T,2026-07-05T09:36:06.245856,15.36919387,.0010127,51.8831,310.7875,330.1266,29.9142,0,U,69609,999,403,-.2816E-3,-.10723E-3,0
KUIPER-00541,2026-140U,2026-07-05T09:16:19.663680,15.38248569,.0007414,51.8833,310.6995,284.6282,75.3883,0,U,69610,999,403,.14486E-2,.55506E-3,0
KUIPER-00542,2026-140V,2026-07-05T09:13:51.271680,15.38220986,.0007904,51.8771,310.6822,265.4036,94.6048,0,U,69611,999,403,.17793E-2,.6833E-3,0
KUIPER-00543,2026-140W,2026-07-05T08:07:49.893888,15.36681378,.0007333,51.8782,311.1133,5.4673,354.6392,0,U,69612,999,402,.11433E-2,.41468E-3,0
KUIPER-00544,2026-140X,2026-07-05T09:18:50.143968,15.37984323,.0006171,51.8770,310.7015,279.9529,80.0761,0,U,69613,999,403,.11085E-2,.41929E-3,0
KUIPER-00546,2026-140Y,2026-07-05T08:53:32.650656,15.38746295,.001484,51.8794,310.5913,226.9932,132.9813,0,U,69614,999,403,.12032E-2,.46868E-3,0
KUIPER-00547,2026-140Z,2026-07-05T09:07:57.358272,15.37690972,.0010723,51.8818,310.6589,247.7823,112.2027,0,U,69615,999,403,.80604E-3,.30079E-3,0
KUIPER-00550,2026-140AB,2026-07-05T14:00:03.000384,15.33602501,.00072899,51.8803,310.1013,19.7332,173.6234,0,U,69617,999,330,.10812024E-3,.3191E-4,0
KUIPER-00551,2026-140AC,2026-07-05T09:00:07.223040,15.38071660,.0012479,51.8793,310.6199,240.9832,118.9905,0,U,69618,999,403,.12495E-2,.47574E-3,0
KUIPER-00554,2026-140AD,2026-07-05T09:05:58.145280,15.37813949,.0011287,51.8776,310.6438,250.4306,109.5463,0,U,69619,999,403,.93383E-3,.35082E-3,0
KUIPER-00555,2026-140AE,2026-07-05T09:02:30.808608,15.37967772,.0011625,51.8822,310.6350,241.8535,118.1278,0,U,69620,999,403,.14052E-2,.53393E-3,0
KUIPER-00556,2026-140AF,2026-07-05T09:03:39.448224,15.38153631,.0012312,51.8802,310.6356,228.7339,131.2589,0,U,69621,999,403,.10935E-2,.4166E-3,0
KUIPER-00557,2026-140AG,2026-07-04T17:34:30.268128,15.37347388,.00099505,51.8816,313.8112,257.0705,102.9170,0,U,69622,999,393,.16488239E-2,.61492E-3,0
KUIPER-00560,2026-140AH,2026-07-04T17:32:27.659616,15.38716800,.00091575,51.8784,313.7982,262.1846,97.8102,0,U,69623,999,393,.22830057E-2,.89501E-3,0
KUIPER-00561,2026-140AJ,2026-07-04T17:35:07.420992,15.38511982,.00080737,51.8816,313.8173,264.8241,95.1825,0,U,69624,999,393,.19179502E-2,.74454E-3,0
KUIPER-00564,2026-140AK,2026-07-05T09:05:17.670336,15.38855875,.0009332,51.8791,310.6440,254.5241,105.4716,0,U,69625,999,403,.11368E-2,.44308E-3,0
KUIPER-00567,2026-140AL,2026-07-05T09:00:43.799616,15.38311399,.0013073,51.8780,310.6214,233.6690,126.3091,0,U,69626,999,403,.12283E-2,.4714E-3,0
KUIPER-00573,2026-140AM,2026-07-05T09:15:09.952704,15.37341379,.000978,51.8793,310.6868,245.2522,114.7447,0,U,69627,999,403,.16527E-2,.61625E-3,0
CENTISPACE-1 GROUP 05 OBJECT J,2026-138J,2026-07-05T13:37:55.872192,14.15845880,.00088706,55.1389,213.2536,322.5954,37.4402,0,U,69636,999,259,-.13636622E-3,-.423E-5,0
VICTUS HAZE PUMA,2026-142A,2026-07-05T15:20:14.764128,15.20730242,.00256015,97.4473,84.0530,301.6788,58.1951,0,U,69646,999,247,.21910609E-3,.4791E-4,0
