KUIPER-00534            
1 69606U 26140Q   26186.36918079  .00051717  00000+0  13326-2 0  9993
2 69606  51.8821 310.5863 0013772 228.9582 131.0216 15.38603679  4035
KUIPER-00537            
1 69607U 26140R   26186.34714967  .00053018  00000+0  15371-2 0  9990
2 69607  51.8823 311.1792 0009691  19.1451 340.9897 15.34980861  4028
KUIPER-00538            
1 69608U 26140S   26186.39300520  .00037479  00000+0  10065-2 0  9990
2 69608  51.8816 310.7388 0006093 304.5948  55.4464 15.37554265  4039
KUIPER-00540            
1 69609U 26140T   26186.40007230 -.00010723  00000+0 -28160-3 0  9996
2 69609  51.8831 310.7875 0010126 330.1266  29.9142 15.36919387  4036
KUIPER-00541            
1 69610U 26140U   26186.38633871  .00055506  00000+0  14486-2 0  9992
2 69610  51.8833 310.6995 0007414 284.6282  75.3883 15.38248569  4035
KUIPER-00542            
1 69611U 26140V   26186.38462121  .00068330  00000+0  17793-2 0  9994
2 69611  51.8771 310.6822 0007903 265.4036  94.6048 15.38220986  4033
KUIPER-00543            
1 69612U 26140W   26186.33877193  .00041468  00000+0  11433-2 0  9997
2 69612  51.8782 311.1133 0007332   5.4673 354.6392 15.36681378  4026
KUIPER-00544            
1 69613U 26140X   26186.38808038  .00041929  00000+0  11085-2 0  9990
2 69613  51.8770 310.7015 0006171 279.9529  80.0761 15.37984323  4034
KUIPER-00546            
1 69614U 26140Y   26186.37051680  .00046868  00000+0  12032-2 0  9993
2 69614  51.8794 310.5913 0014839 226.9932 132.9813 15.38746295  4036
KUIPER-00547            
1 69615U 26140Z   26186.38052498  .00030079  00000+0  80604-3 0  9991
2 69615  51.8818 310.6589 0010723 247.7823 112.2027 15.37690972  4039
KUIPER-00550            
1 69617U 26140AB  26186.58336806  .00003191  00000+0  10812-3 0  9992
2 69617  51.8803 310.1013 0007289  19.7332 173.6234 15.33602501  3304
KUIPER-00551            
1 69618U 26140AC  26186.37508360  .00047574  00000+0  12495-2 0  9997
2 69618  51.8793 310.6199 0012479 240.9832 118.9905 15.38071660  4032
KUIPER-00554            
1 69619U 26140AD  26186.37914520  .00035082  00000+0  93383-3 0  9994
2 69619  51.8776 310.6438 0011287 250.4306 109.5463 15.37813949  4036
KUIPER-00555            
1 69620U 26140AE  26186.37674548  .00053393  00000+0  14052-2 0  9999
2 69620  51.8822 310.6350 0011625 241.8535 118.1278 15.37967772  4031
KUIPER-00556            
1 69621U 26140AF  26186.37753991  .00041660  00000+0  10935-2 0  9990
2 69621  51.8802 310.6356 0012311 228.7339 131.2589 15.38153631  4038
KUIPER-00557            
1 69622U 26140AG  26185.73229477  .00061492  00000+0  16488-2 0  9991
2 69622  51.8816 313.8112 0009950 257.0705 102.9170 15.37347388  3938
KUIPER-00560            
1 69623U 26140AH  26185.73087569  .00089501  00000+0  22830-2 0  9995
2 69623  51.8784 313.7982 0009157 262.1846  97.8102 15.38716800  3936
KUIPER-00561            
1 69624U 26140AJ  26185.73272478  .00074454  00000+0  19180-2 0  9996
2 69624  51.8816 313.8173 0008073 264.8241  95.1825 15.38511982  3937
KUIPER-00564            
1 69625U 26140AK  26186.37867674  .00044308  00000+0  11368-2 0  9991
2 69625  51.8791 310.6440 0009331 254.5241 105.4716 15.38855875  4034
KUIPER-00567            
1 69626U 26140AL  26186.37550695  .00047140  00000+0  12283-2 0  9998
2 69626  51.8780 310.6214 0013073 233.6690 126.3091 15.38311399  4032
KUIPER-00573            
1 69627U 26140AM  26186.38553187  .00061625  00000+0  16527-2 0  9998
2 69627  51.8793 310.6868 0009779 245.2522 114.7447 15.37341379  4039
CENTISPACE-1 GROUP 05 O*
1 69636U 26138J   26186.56800778 -.00000423  00000+0 -13637-3 0  9997
2 69636  55.1389 213.2536 0008870 322.5954  37.4402 14.15845880  2598
VICTUS HAZE PUMA        
1 69646U 26142A   26186.63905977  .00004791  00000+0  21911-3 0  9992
2 69646  97.4473  84.0530 0025601 301.6788  58.1951 15.20730242  2472
